[{"OBJECT_NAME":"ZIYUAN 3-03 (ZY 3-03)","OBJECT_ID":"2020-051A","EPOCH":"2026-03-09T22:27:18.788832","MEAN_MOTION":15.21373756,"ECCENTRICITY":0.00046668,"INCLINATION":97.2927,"RA_OF_ASC_NODE":139.821,"ARG_OF_PERICENTER":314.2348,"MEAN_ANOMALY":45.8505,"EPHEMERIS_TYPE":0,"CLASSIFICATION_TYPE":"U","NORAD_CAT_ID":45939,"ELEMENT_SET_NO":999,"REV_AT_EPOCH":31225,"BSTAR":0.00021267837,"MEAN_MOTION_DOT":4.701e-5,"MEAN_MOTION_DDOT":0},{"OBJECT_NAME":"HORUS 2","OBJECT_ID":"2023-032A","EPOCH":"2026-03-09T22:32:30.893280","MEAN_MOTION":15.23604467,"ECCENTRICITY":0.00034558,"INCLINATION":97.3597,"RA_OF_ASC_NODE":146.3013,"ARG_OF_PERICENTER":105.0024,"MEAN_ANOMALY":255.1596,"EPHEMERIS_TYPE":0,"CLASSIFICATION_TYPE":"U","NORAD_CAT_ID":55844,"ELEMENT_SET_NO":999,"REV_AT_EPOCH":16637,"BSTAR":0.00034847707,"MEAN_MOTION_DOT":8.276e-5,"MEAN_MOTION_DDOT":0}]
