ZIYUAN 3-03 (ZY 3-03)   
1 45939U 20051A   26068.93563413  .00004701  00000+0  21268-3 0  9997
2 45939  97.2927 139.8210 0004666 314.2348  45.8505 15.21373756312259
HORUS 2                 
1 55844U 23032A   26068.93924645  .00008276  00000+0  34848-3 0  9992
2 55844  97.3597 146.3013 0003455 105.0024 255.1596 15.23604467166379
